#cP2024  2  8  0  0  0.00000000     577 d+D   IGS20 EXT AIUB
## 2300 345600.00000000   300.00000000 60348 0.0000000000000
+   77   G01G02G03G04G05G06G07G08G09G10G11G12G13G14G15G16G17
+        G18G19G20G21G22G23G24G25G26G27G28G29G30G31G32R01R02
+        R03R04R05R07R08R09R11R12R13R14R15R16R17R18R19R20R21
+        R22R24E02E03E04E05E07E08E09E10E11E12E13E14E15E18E19
+        E21E25E26E27E30E31E33E34E36  0  0  0  0  0  0  0  0
++         6  7  6  6  7  6  7  5  5  6  7  7  7  6  7  7  7
++         7  7  7  7  7  6  6  5  6  6  5  8  5  7  6  9  7
++         8  8  8  8  8  7  7  6  7  7  7  7  8  7  8 10  8
++         7  7  5  7  6  6  6  7  7  7  7  7  6  7  7  7  6
++         6  6  7  6  5  6  7  7  7  0  0  0  0  0  0  0  0
%c M  cc GPS ccc cccc cccc cccc cccc ccccc ccccc ccccc ccccc
%c cc cc ccc ccc cccc cccc cccc cccc ccccc ccccc ccccc ccccc
%f  1.2500000  1.025000000  0.00000000000  0.000000000000000
%f  0.0000000  0.000000000  0.00000000000  0.000000000000000
%i    0    0    0    0      0      0      0      0         0
%i    0    0    0    0      0      0      0      0         0
/* Center for Orbit Determination in Europe (CODE)          
/* Ultra-rapid GRE orbits starting year-day 24039 00 hour   
/* Observed/predicted: 24/24 hours (data used up to 039X)   
/* PCV:IGS20      OL/AL:FES2014b NONE     YN ORB:CoN CLK:BRD
*  2024  2  9 22 20  0.00000000
PG01  14438.243087  -2128.560097  21877.381570    168.932617               P   P
PG02  17541.399707   5244.369636  19830.853794   -487.905406               P   P
PG03  19806.873916  -7085.611066  16002.126228    182.904084               P   P
PG04  25906.937864   1064.126547  -6062.189250    287.732155               P   P
PG05 -14920.222182  -4837.042641 -21616.783537   -161.204036               P   P
PG06  -5303.194794 -25415.595954   5385.661956    413.275093               P   P
PG07   8872.948877 -15384.909400 -19109.405841    -58.124275               P   P
PG08  26019.280037   5711.385275  -2966.609806   -166.243961               P   P
PG09  18876.489947  -8966.964935 -16510.103027     86.858835               P   P
PG10  -8102.273768  22235.898650  11924.878009    -72.678099               P   P
PG11 -11896.474494 -22888.572609  -6406.115690   -570.357532               P   P
PG12 -20363.770423   5351.566552  15862.297155   -476.410036               P   P
PG13 -20642.122363 -13761.332477  -9988.842027    624.051777               P   P
PG14  11617.476113 -22307.820374   8256.708590    321.536339               P   P
PG15 -26288.317378  -3215.750334  -3640.004054    126.059416               P   P
PG16  10122.601754  11549.040124 -21988.439492   -366.125794               P   P
PG17   6159.657998 -14082.226958  22098.025429    717.487713               P   P
PG18  -7957.911011  16535.215071 -19117.775862   -552.033537               P   P
PG19  -4810.317332 -15987.581299  20553.910445    438.458838               P   P
PG20  -6196.762939 -17036.134544 -19405.200400    388.100730               P   P
PG21  18284.264518  11222.873296  16747.164130    135.501550               P   P
PG22   6000.731989 -21252.115251  15395.457573     33.854995               P   P
PG23 -16408.754569  20752.598958   -198.112818    152.824015               P   P
PG24 -18146.424095  -7752.647648  17554.141689   -429.059683               P   P
PG25 -19669.706809  15689.966028   7721.616947    488.099296               P   P
PG26   2351.519961  19567.005451 -17782.827996    191.894293               P   P
PG27  18912.888608  12974.770307 -14032.317682     -2.607979               P   P
PG28   4211.716897  24980.292247   7966.522629   -125.768380               P   P
PG29 -20630.213129   5903.896469 -15766.274551   -607.268482               P   P
PG30   1225.073267 -23241.224898 -12420.820615   -434.643296               P   P
PG31   9784.072385  24402.464993  -1794.960947   -227.709481               P   P
PG32  -1383.685093  15253.329251  21903.916877   -610.726595               P   P
PR01  -2818.684495 -10585.822044 -23030.937428     76.754551               P   P
PR02 -19258.418090  -3670.440501 -16229.540255    -22.512543               P   P
PR03 -24880.740757   5471.598729    -65.726213     94.223352               P   P
PR04 -16822.547798  11004.726704  15724.912587    222.796713               P   P
PR05    299.135530  10857.173931  23093.886141    126.688200               P   P
PR07  24861.517247  -5789.471155   -671.585086     75.473412               P   P
PR08  16623.241314 -11209.545336 -15729.048933    -74.399752               P   P
PR09   8391.777589  10187.727086 -21829.323371    169.103194               P   P
PR11  10751.672451 -21437.228681  -8663.903468     34.825623               P   P
PR12   1797.140440 -23136.439492  10625.849538     36.579617               P   P
PR13  -6920.616732 -12458.888747  21134.768410    -44.236004               P   P
PR14 -12860.740674   8279.124310  20422.255865     26.043644               P   P
PR15 -10495.944023  22096.216250   7246.109989     82.345146               P   P
PR16  -1917.228255  23245.265121 -10363.221812     23.164118               P   P
PR17 -15552.382727  -3659.293910 -19884.766204     59.906133               P   P
PR18  -4464.113485  10473.728369 -22814.232908    126.591091               P   P
PR19   7021.544070  19117.758899 -15357.500378   -265.221456               P   P
PR20  17622.380408  17813.814386   4917.513551   -107.959418               P   P
PR21  15304.379667   3522.631900  20097.002131    -75.714000               P   P
PR22   4302.810814 -11375.473301  22448.368089    107.335324               P   P
PR24 -18491.242278 -16723.237157  -5393.768333    -43.270102               P   P
PE02  21109.132961 -20429.183859  -3744.464592    102.107124               P   P
PE03  20249.090096  -9895.076847 -19187.814112    -92.764864               P   P
PE04    866.114092  17244.641246  24051.124841   -323.574477               P   P
PE05  29261.101004   3123.843363  -3202.207831   4718.515725               P   P
PE07 -20907.660007 -14560.617109 -15065.994105   -102.914430               P   P
PE08    -97.726431 -17010.022493 -24223.759930   -221.394119               P   P
PE09  20813.743180  14515.226448  15235.138462   -330.358138               P   P
PE10   9555.765621  28009.218615   -643.086665   -600.697933               P   P
PE11  14989.720191  23621.194525   9695.822742   3255.109686               P   P
PE12   3176.430297  27800.084860  -9691.156452   -899.456641               P   P
PE13 -14702.717244 -24022.987778  -9074.724853    -20.126318               P   P
PE14 -15732.665300  15639.509851 -22202.209491 999999.999999               P   P
PE15  -2825.082719 -27625.653000  10241.060626    -84.932938               P   P
PE18  -1711.890869 -17126.983806  19199.842936 999999.999999               P   P
PE19 -22070.948517   8374.359600  17864.355360   -645.716723               P   P
PE21 -21912.940124   5115.298273  19217.521336   -578.215569               P   P
PE25  21805.034507  -4734.919076 -19458.569023      0.673635               P   P
PE26 -17845.840481  -5685.217519 -22909.670988    364.162947               P   P
PE27 -10014.843607 -13909.790780  24126.908822   -270.741773               P   P
PE30   7916.272620 -24541.831253  14531.270176   -894.044383               P   P
PE31  -7625.077970  24493.434318 -14762.197135    -15.623496               P   P
PE33 -10836.829964  14456.169646 -23439.716487      7.356216               P   P
PE34  10494.375896 -15017.554635  23250.288104    -93.746324               P   P
PE36  17796.406272   6452.935193  22766.846631   -183.722220               P   P
EOF
